[{"OBJECT_NAME":"NORSAT 3","OBJECT_ID":"2021-034E","EPOCH":"2026-03-09T22:23:32.431200","MEAN_MOTION":15.04338407,"ECCENTRICITY":0.0005858,"INCLINATION":97.5427,"RA_OF_ASC_NODE":128.5959,"ARG_OF_PERICENTER":280.8366,"MEAN_ANOMALY":79.2201,"EPHEMERIS_TYPE":0,"CLASSIFICATION_TYPE":"U","NORAD_CAT_ID":48272,"ELEMENT_SET_NO":999,"REV_AT_EPOCH":26491,"BSTAR":0.00030361478,"MEAN_MOTION_DOT":4.174e-5,"MEAN_MOTION_DDOT":0},{"OBJECT_NAME":"STARLINK-34806","OBJECT_ID":"2025-165K","EPOCH":"2026-03-09T22:28:33.330432","MEAN_MOTION":15.05665154,"ECCENTRICITY":3.883e-5,"INCLINATION":97.602,"RA_OF_ASC_NODE":147.412,"ARG_OF_PERICENTER":127.2294,"MEAN_ANOMALY":232.8968,"EPHEMERIS_TYPE":0,"CLASSIFICATION_TYPE":"U","NORAD_CAT_ID":65065,"ELEMENT_SET_NO":999,"REV_AT_EPOCH":3482,"BSTAR":0.00069838759,"MEAN_MOTION_DOT":0.00010035,"MEAN_MOTION_DDOT":0}]
